[
  {
    "COMMENT": "GENERATED VIA SPACETRACK.ORG API",
    "ORIGINATOR": "18 SPCS",
    "NORAD_CAT_ID": "43437",
    "OBJECT_NAME": "SENTINEL 3B",
    "OBJECT_TYPE": "PAYLOAD",
    "CLASSIFICATION_TYPE": "U",
    "INTLDES": "18039A",
    "EPOCH": "2023-05-14 19:37:39",
    "EPOCH_MICROSECONDS": "466560",
    "MEAN_MOTION": "14.26730729",
    "ECCENTRICITY": "0.0001046",
    "INCLINATION": "98.6288",
    "RA_OF_ASC_NODE": "202.393",
    "ARG_OF_PERICENTER": "81.9462",
    "MEAN_ANOMALY": "278.1838",
    "EPHEMERIS_TYPE": "0",
    "ELEMENT_SET_NO": "999",
    "REV_AT_EPOCH": "26308",
    "BSTAR": "0.000089534",
    "MEAN_MOTION_DOT": "0.00000173",
    "MEAN_MOTION_DDOT": "0",
    "FILE": "3908005",
    "TLE_LINE0": "0 SENTINEL 3B",
    "TLE_LINE1": "1 43437U 18039A   23134.81781790  .00000173  00000-0  89534-4 0  9990",
    "TLE_LINE2": "2 43437  98.6288 202.3930 0001046  81.9462 278.1838 14.26730729263081",
    "OBJECT_ID": "2018-039A",
    "OBJECT_NUMBER": "43437",
    "SEMIMAJOR_AXIS": "7180.817",
    "PERIOD": "100.930",
    "APOGEE": "803.433",
    "PERIGEE": "801.930",
    "DECAYED": "0"
  },
  {
    "COMMENT": "GENERATED VIA SPACETRACK.ORG API",
    "ORIGINATOR": "18 SPCS",
    "NORAD_CAT_ID": "43437",
    "OBJECT_NAME": "SENTINEL 3B",
    "OBJECT_TYPE": "PAYLOAD",
    "CLASSIFICATION_TYPE": "U",
    "INTLDES": "18039A",
    "EPOCH": "2023-05-15 10:46:32",
    "EPOCH_MICROSECONDS": "678976",
    "MEAN_MOTION": "14.26730969",
    "ECCENTRICITY": "0.0001043",
    "INCLINATION": "98.6288",
    "RA_OF_ASC_NODE": "203.0154",
    "ARG_OF_PERICENTER": "82.5382",
    "MEAN_ANOMALY": "277.5917",
    "EPHEMERIS_TYPE": "0",
    "ELEMENT_SET_NO": "999",
    "REV_AT_EPOCH": "26317",
    "BSTAR": "0.000082747",
    "MEAN_MOTION_DOT": "0.00000157",
    "MEAN_MOTION_DDOT": "0",
    "FILE": "3908681",
    "TLE_LINE0": "0 SENTINEL 3B",
    "TLE_LINE1": "1 43437U 18039A   23135.44898934  .00000157  00000-0  82747-4 0  9990",
    "TLE_LINE2": "2 43437  98.6288 203.0154 0001043  82.5382 277.5917 14.26730969263179",
    "OBJECT_ID": "2018-039A",
    "OBJECT_NUMBER": "43437",
    "SEMIMAJOR_AXIS": "7180.816",
    "PERIOD": "100.930",
    "APOGEE": "803.430",
    "PERIGEE": "801.932",
    "DECAYED": "0"
  },
  {
    "COMMENT": "GENERATED VIA SPACETRACK.ORG API",
    "ORIGINATOR": "18 SPCS",
    "NORAD_CAT_ID": "43437",
    "OBJECT_NAME": "SENTINEL 3B",
    "OBJECT_TYPE": "PAYLOAD",
    "CLASSIFICATION_TYPE": "U",
    "INTLDES": "18039A",
    "EPOCH": "2023-05-15 15:49:30",
    "EPOCH_MICROSECONDS": "411264",
    "MEAN_MOTION": "14.26731114",
    "ECCENTRICITY": "0.0001045",
    "INCLINATION": "98.6288",
    "RA_OF_ASC_NODE": "203.2229",
    "ARG_OF_PERICENTER": "82.6033",
    "MEAN_ANOMALY": "277.5266",
    "EPHEMERIS_TYPE": "0",
    "ELEMENT_SET_NO": "999",
    "REV_AT_EPOCH": "26320",
    "BSTAR": "0.000084617",
    "MEAN_MOTION_DOT": "0.00000161",
    "MEAN_MOTION_DDOT": "0",
    "FILE": "3908892",
    "TLE_LINE0": "0 SENTINEL 3B",
    "TLE_LINE1": "1 43437U 18039A   23135.65937976  .00000161  00000-0  84617-4 0  9996",
    "TLE_LINE2": "2 43437  98.6288 203.2229 0001045  82.6033 277.5266 14.26731114263204",
    "OBJECT_ID": "2018-039A",
    "OBJECT_NUMBER": "43437",
    "SEMIMAJOR_AXIS": "7180.815",
    "PERIOD": "100.930",
    "APOGEE": "803.431",
    "PERIGEE": "801.930",
    "DECAYED": "0"
  },
  {
    "COMMENT": "GENERATED VIA SPACETRACK.ORG API",
    "ORIGINATOR": "18 SPCS",
    "NORAD_CAT_ID": "43437",
    "OBJECT_NAME": "SENTINEL 3B",
    "OBJECT_TYPE": "PAYLOAD",
    "CLASSIFICATION_TYPE": "U",
    "INTLDES": "18039A",
    "EPOCH": "2023-05-16 03:36:25",
    "EPOCH_MICROSECONDS": "119072",
    "MEAN_MOTION": "14.26731362",
    "ECCENTRICITY": "0.0001035",
    "INCLINATION": "98.6287",
    "RA_OF_ASC_NODE": "203.7069",
    "ARG_OF_PERICENTER": "82.6596",
    "MEAN_ANOMALY": "277.4702",
    "EPHEMERIS_TYPE": "0",
    "ELEMENT_SET_NO": "999",
    "REV_AT_EPOCH": "26327",
    "BSTAR": "0.000085856",
    "MEAN_MOTION_DOT": "0.00000164",
    "MEAN_MOTION_DDOT": "0",
    "FILE": "3908943",
    "TLE_LINE0": "0 SENTINEL 3B",
    "TLE_LINE1": "1 43437U 18039A   23136.15029073  .00000164  00000-0  85856-4 0  9991",
    "TLE_LINE2": "2 43437  98.6287 203.7069 0001035  82.6596 277.4702 14.26731362263279",
    "OBJECT_ID": "2018-039A",
    "OBJECT_NUMBER": "43437",
    "SEMIMAJOR_AXIS": "7180.814",
    "PERIOD": "100.930",
    "APOGEE": "803.423",
    "PERIGEE": "801.936",
    "DECAYED": "0"
  },
  {
    "COMMENT": "GENERATED VIA SPACETRACK.ORG API",
    "ORIGINATOR": "18 SPCS",
    "NORAD_CAT_ID": "43437",
    "OBJECT_NAME": "SENTINEL 3B",
    "OBJECT_TYPE": "PAYLOAD",
    "CLASSIFICATION_TYPE": "U",
    "INTLDES": "18039A",
    "EPOCH": "2023-05-16 03:36:25",
    "EPOCH_MICROSECONDS": "119072",
    "MEAN_MOTION": "14.26731362",
    "ECCENTRICITY": "0.0001035",
    "INCLINATION": "98.6287",
    "RA_OF_ASC_NODE": "203.7069",
    "ARG_OF_PERICENTER": "82.6596",
    "MEAN_ANOMALY": "277.4702",
    "EPHEMERIS_TYPE": "0",
    "ELEMENT_SET_NO": "999",
    "REV_AT_EPOCH": "26327",
    "BSTAR": "0.000085856",
    "MEAN_MOTION_DOT": "0.00000164",
    "MEAN_MOTION_DDOT": "0",
    "FILE": "3909472",
    "TLE_LINE0": "0 SENTINEL 3B",
    "TLE_LINE1": "1 43437U 18039A   23136.15029073  .00000164  00000-0  85856-4 0  9991",
    "TLE_LINE2": "2 43437  98.6287 203.7069 0001035  82.6596 277.4702 14.26731362263279",
    "OBJECT_ID": "2018-039A",
    "OBJECT_NUMBER": "43437",
    "SEMIMAJOR_AXIS": "7180.814",
    "PERIOD": "100.930",
    "APOGEE": "803.423",
    "PERIGEE": "801.936",
    "DECAYED": "0"
  },
  {
    "COMMENT": "GENERATED VIA SPACETRACK.ORG API",
    "ORIGINATOR": "18 SPCS",
    "NORAD_CAT_ID": "43437",
    "OBJECT_NAME": "SENTINEL 3B",
    "OBJECT_TYPE": "PAYLOAD",
    "CLASSIFICATION_TYPE": "U",
    "INTLDES": "18039A",
    "EPOCH": "2023-05-17 04:51:13",
    "EPOCH_MICROSECONDS": "752000",
    "MEAN_MOTION": "14.26731799",
    "ECCENTRICITY": "0.0001025",
    "INCLINATION": "98.6287",
    "RA_OF_ASC_NODE": "204.7443",
    "ARG_OF_PERICENTER": "82.478",
    "MEAN_ANOMALY": "277.6517",
    "EPHEMERIS_TYPE": "0",
    "ELEMENT_SET_NO": "999",
    "REV_AT_EPOCH": "26342",
    "BSTAR": "0.00008089",
    "MEAN_MOTION_DOT": "0.00000152",
    "MEAN_MOTION_DDOT": "0",
    "FILE": "3910037",
    "TLE_LINE0": "0 SENTINEL 3B",
    "TLE_LINE1": "1 43437U 18039A   23137.20224250  .00000152  00000-0  80890-4 0  9992",
    "TLE_LINE2": "2 43437  98.6287 204.7443 0001025  82.4780 277.6517 14.26731799263425",
    "OBJECT_ID": "2018-039A",
    "OBJECT_NUMBER": "43437",
    "SEMIMAJOR_AXIS": "7180.813",
    "PERIOD": "100.930",
    "APOGEE": "803.414",
    "PERIGEE": "801.942",
    "DECAYED": "0"
  },
  {
    "COMMENT": "GENERATED VIA SPACETRACK.ORG API",
    "ORIGINATOR": "18 SPCS",
    "NORAD_CAT_ID": "43437",
    "OBJECT_NAME": "SENTINEL 3B",
    "OBJECT_TYPE": "PAYLOAD",
    "CLASSIFICATION_TYPE": "U",
    "INTLDES": "18039A",
    "EPOCH": "2023-05-17 18:19:07",
    "EPOCH_MICROSECONDS": "688352",
    "MEAN_MOTION": "14.26731966",
    "ECCENTRICITY": "0.0001029",
    "INCLINATION": "98.6287",
    "RA_OF_ASC_NODE": "205.2976",
    "ARG_OF_PERICENTER": "82.7124",
    "MEAN_ANOMALY": "277.4174",
    "EPHEMERIS_TYPE": "0",
    "ELEMENT_SET_NO": "999",
    "REV_AT_EPOCH": "26350",
    "BSTAR": "0.000076683",
    "MEAN_MOTION_DOT": "0.00000142",
    "MEAN_MOTION_DDOT": "0",
    "FILE": "3910633",
    "TLE_LINE0": "0 SENTINEL 3B",
    "TLE_LINE1": "1 43437U 18039A   23137.76328343  .00000142  00000-0  76683-4 0  9995",
    "TLE_LINE2": "2 43437  98.6287 205.2976 0001029  82.7124 277.4174 14.26731966263503",
    "OBJECT_ID": "2018-039A",
    "OBJECT_NUMBER": "43437",
    "SEMIMAJOR_AXIS": "7180.812",
    "PERIOD": "100.930",
    "APOGEE": "803.416",
    "PERIGEE": "801.938",
    "DECAYED": "0"
  },
  {
    "COMMENT": "GENERATED VIA SPACETRACK.ORG API",
    "ORIGINATOR": "18 SPCS",
    "NORAD_CAT_ID": "43437",
    "OBJECT_NAME": "SENTINEL 3B",
    "OBJECT_TYPE": "PAYLOAD",
    "CLASSIFICATION_TYPE": "U",
    "INTLDES": "18039A",
    "EPOCH": "2023-05-18 04:25:03",
    "EPOCH_MICROSECONDS": "124416",
    "MEAN_MOTION": "14.26732134",
    "ECCENTRICITY": "0.0001009",
    "INCLINATION": "98.6286",
    "RA_OF_ASC_NODE": "205.7125",
    "ARG_OF_PERICENTER": "83.049",
    "MEAN_ANOMALY": "277.0805",
    "EPHEMERIS_TYPE": "0",
    "ELEMENT_SET_NO": "999",
    "REV_AT_EPOCH": "26356",
    "BSTAR": "0.000074392",
    "MEAN_MOTION_DOT": "0.00000136",
    "MEAN_MOTION_DDOT": "0",
    "FILE": "3911221",
    "TLE_LINE0": "0 SENTINEL 3B",
    "TLE_LINE1": "1 43437U 18039A   23138.18406394  .00000136  00000-0  74392-4 0  9993",
    "TLE_LINE2": "2 43437  98.6286 205.7125 0001009  83.0490 277.0805 14.26732134263562",
    "OBJECT_ID": "2018-039A",
    "OBJECT_NUMBER": "43437",
    "SEMIMAJOR_AXIS": "7180.812",
    "PERIOD": "100.930",
    "APOGEE": "803.401",
    "PERIGEE": "801.952",
    "DECAYED": "0"
  }
]